{
  "type": "FeatureCollection",
  "features": [
    {
      "type": "Feature",
      "geometry": {
        "type": "Point",
        "coordinates": [
          -75.125,
          42.125
        ]
      },
      "properties": {
        "grid_cell": "(42.125, -75.125)",
        "lat": 42.125,
        "lon": -75.125,
        "delta_T_DJF_K": 1.662616114411719,
        "delta_T_JJA_K": 1.1314688088237972,
        "delta_T_MAM_K": 1.8191639444102634,
        "delta_T_SON_K": 1.6960015153710515
      }
    },
    {
      "type": "Feature",
      "geometry": {
        "type": "Point",
        "coordinates": [
          -74.875,
          42.125
        ]
      },
      "properties": {
        "grid_cell": "(42.125, -74.875)",
        "lat": 42.125,
        "lon": -74.875,
        "delta_T_DJF_K": 1.6520831922700268,
        "delta_T_JJA_K": 1.140468121957042,
        "delta_T_MAM_K": 1.7949458357216486,
        "delta_T_SON_K": 1.6872445578102884
      }
    },
    {
      "type": "Feature",
      "geometry": {
        "type": "Point",
        "coordinates": [
          -74.625,
          42.125
        ]
      },
      "properties": {
        "grid_cell": "(42.125, -74.625)",
        "lat": 42.125,
        "lon": -74.625,
        "delta_T_DJF_K": 1.688727088477151,
        "delta_T_JJA_K": 1.199064658344696,
        "delta_T_MAM_K": 1.7990269425986298,
        "delta_T_SON_K": 1.7074968386918954
      }
    },
    {
      "type": "Feature",
      "geometry": {
        "type": "Point",
        "coordinates": [
          -75.125,
          42.375
        ]
      },
      "properties": {
        "grid_cell": "(42.375, -75.125)",
        "lat": 42.375,
        "lon": -75.125,
        "delta_T_DJF_K": 1.7362151301670679,
        "delta_T_JJA_K": 1.2167211449664705,
        "delta_T_MAM_K": 1.902161484870362,
        "delta_T_SON_K": 1.7689132858108678
      }
    },
    {
      "type": "Feature",
      "geometry": {
        "type": "Point",
        "coordinates": [
          -74.875,
          42.375
        ]
      },
      "properties": {
        "grid_cell": "(42.375, -74.875)",
        "lat": 42.375,
        "lon": -74.875,
        "delta_T_DJF_K": 1.7239014700328426,
        "delta_T_JJA_K": 1.217050967009186,
        "delta_T_MAM_K": 1.8769011677175627,
        "delta_T_SON_K": 1.757764107840444
      }
    },
    {
      "type": "Feature",
      "geometry": {
        "type": "Point",
        "coordinates": [
          -74.625,
          42.375
        ]
      },
      "properties": {
        "grid_cell": "(42.375, -74.625)",
        "lat": 42.375,
        "lon": -74.625,
        "delta_T_DJF_K": 1.7488846672322893,
        "delta_T_JJA_K": 1.2541104524032107,
        "delta_T_MAM_K": 1.8711392831111198,
        "delta_T_SON_K": 1.7682055015703781
      }
    }
  ],
  "metadata": {
    "model": "CMCC-ESM2",
    "variable": "tasmax",
    "scenario": "ssp370",
    "historical_period": "1990-2019",
    "future_period": "2035-2064",
    "baseline_source": "CMCC-ESM2",
    "description": "Additive temperature change factors (\u0394T = CMCC-ESM2 future - CMCC-ESM2 historical) by season for tasmax in Kelvin"
  }
}