{
  "type": "FeatureCollection",
  "features": [
    {
      "type": "Feature",
      "geometry": {
        "type": "Point",
        "coordinates": [
          -75.125,
          42.125
        ]
      },
      "properties": {
        "grid_cell": "(42.125, -75.125)",
        "lat": 42.125,
        "lon": -75.125,
        "delta_T_DJF_K": 1.343173558459796,
        "delta_T_JJA_K": 1.657714630434782,
        "delta_T_MAM_K": 1.7849442137680853,
        "delta_T_SON_K": 2.3371896080585657
      }
    },
    {
      "type": "Feature",
      "geometry": {
        "type": "Point",
        "coordinates": [
          -74.875,
          42.125
        ]
      },
      "properties": {
        "grid_cell": "(42.125, -74.875)",
        "lat": 42.125,
        "lon": -74.875,
        "delta_T_DJF_K": 1.3490011335943564,
        "delta_T_JJA_K": 1.6660113695652399,
        "delta_T_MAM_K": 1.78900573550726,
        "delta_T_SON_K": 2.3639745238095315
      }
    },
    {
      "type": "Feature",
      "geometry": {
        "type": "Point",
        "coordinates": [
          -74.625,
          42.125
        ]
      },
      "properties": {
        "grid_cell": "(42.125, -74.625)",
        "lat": 42.125,
        "lon": -74.625,
        "delta_T_DJF_K": 1.3634536152677583,
        "delta_T_JJA_K": 1.6946159130434921,
        "delta_T_MAM_K": 1.80273336956526,
        "delta_T_SON_K": 2.3965613003662156
      }
    },
    {
      "type": "Feature",
      "geometry": {
        "type": "Point",
        "coordinates": [
          -75.125,
          42.375
        ]
      },
      "properties": {
        "grid_cell": "(42.375, -75.125)",
        "lat": 42.375,
        "lon": -75.125,
        "delta_T_DJF_K": 1.423485934647033,
        "delta_T_JJA_K": 1.6939965688405891,
        "delta_T_MAM_K": 1.8336628514493327,
        "delta_T_SON_K": 2.351408641025614
      }
    },
    {
      "type": "Feature",
      "geometry": {
        "type": "Point",
        "coordinates": [
          -74.875,
          42.375
        ]
      },
      "properties": {
        "grid_cell": "(42.375, -74.875)",
        "lat": 42.375,
        "lon": -74.875,
        "delta_T_DJF_K": 1.4303207566233596,
        "delta_T_JJA_K": 1.6933479094203108,
        "delta_T_MAM_K": 1.8361239384057626,
        "delta_T_SON_K": 2.37634244322345
      }
    },
    {
      "type": "Feature",
      "geometry": {
        "type": "Point",
        "coordinates": [
          -74.625,
          42.375
        ]
      },
      "properties": {
        "grid_cell": "(42.375, -74.625)",
        "lat": 42.375,
        "lon": -74.625,
        "delta_T_DJF_K": 1.4411747262330437,
        "delta_T_JJA_K": 1.712524036231855,
        "delta_T_MAM_K": 1.8415296050724805,
        "delta_T_SON_K": 2.4063902893772138
      }
    }
  ],
  "metadata": {
    "model": "IPSL-CM6A-LR",
    "variable": "tasmin",
    "scenario": "ssp370",
    "historical_period": "1990-2019",
    "future_period": "2035-2064",
    "baseline_source": "IPSL-CM6A-LR",
    "description": "Additive temperature change factors (\u0394T = IPSL-CM6A-LR future - IPSL-CM6A-LR historical) by season for tasmin in Kelvin"
  }
}