{
  "type": "FeatureCollection",
  "features": [
    {
      "type": "Feature",
      "geometry": {
        "type": "Point",
        "coordinates": [
          -75.125,
          42.125
        ]
      },
      "properties": {
        "grid_cell": "(42.125, -75.125)",
        "lat": 42.125,
        "lon": -75.125,
        "delta_T_DJF_K": 1.7531799633129594,
        "delta_T_JJA_K": 1.3313406349956836,
        "delta_T_MAM_K": 1.8451421654742717,
        "delta_T_SON_K": 1.7640507848270772
      }
    },
    {
      "type": "Feature",
      "geometry": {
        "type": "Point",
        "coordinates": [
          -74.875,
          42.125
        ]
      },
      "properties": {
        "grid_cell": "(42.125, -74.875)",
        "lat": 42.125,
        "lon": -74.875,
        "delta_T_DJF_K": 1.7620178070484371,
        "delta_T_JJA_K": 1.3292996724446766,
        "delta_T_MAM_K": 1.84667140573697,
        "delta_T_SON_K": 1.7517097668770134
      }
    },
    {
      "type": "Feature",
      "geometry": {
        "type": "Point",
        "coordinates": [
          -74.625,
          42.125
        ]
      },
      "properties": {
        "grid_cell": "(42.125, -74.625)",
        "lat": 42.125,
        "lon": -74.625,
        "delta_T_DJF_K": 1.7708551208164067,
        "delta_T_JJA_K": 1.3272592516913164,
        "delta_T_MAM_K": 1.8482003474580893,
        "delta_T_SON_K": 1.73936952025025
      }
    },
    {
      "type": "Feature",
      "geometry": {
        "type": "Point",
        "coordinates": [
          -75.125,
          42.375
        ]
      },
      "properties": {
        "grid_cell": "(42.375, -75.125)",
        "lat": 42.375,
        "lon": -75.125,
        "delta_T_DJF_K": 1.7532370323161217,
        "delta_T_JJA_K": 1.3243998651918787,
        "delta_T_MAM_K": 1.8839196578315978,
        "delta_T_SON_K": 1.7894867725861445
      }
    },
    {
      "type": "Feature",
      "geometry": {
        "type": "Point",
        "coordinates": [
          -74.875,
          42.375
        ]
      },
      "properties": {
        "grid_cell": "(42.375, -74.875)",
        "lat": 42.375,
        "lon": -74.875,
        "delta_T_DJF_K": 1.7648127259963076,
        "delta_T_JJA_K": 1.3189326963562849,
        "delta_T_MAM_K": 1.8842383011527772,
        "delta_T_SON_K": 1.7774348108760023
      }
    },
    {
      "type": "Feature",
      "geometry": {
        "type": "Point",
        "coordinates": [
          -74.625,
          42.375
        ]
      },
      "properties": {
        "grid_cell": "(42.375, -74.625)",
        "lat": 42.375,
        "lon": -74.625,
        "delta_T_DJF_K": 1.776388494126934,
        "delta_T_JJA_K": 1.3134663678596894,
        "delta_T_MAM_K": 1.8845563473908555,
        "delta_T_SON_K": 1.765382927415999
      }
    }
  ],
  "metadata": {
    "model": "INM-CM5-0",
    "variable": "tasmax",
    "scenario": "ssp370",
    "historical_period": "1990-2019",
    "future_period": "2035-2064",
    "baseline_source": "INM-CM5-0",
    "description": "Additive temperature change factors (\u0394T = INM-CM5-0 future - INM-CM5-0 historical) by season for tasmax in Kelvin"
  }
}