{
  "type": "FeatureCollection",
  "features": [
    {
      "type": "Feature",
      "geometry": {
        "type": "Point",
        "coordinates": [
          -75.125,
          42.125
        ]
      },
      "properties": {
        "grid_cell": "(42.125, -75.125)",
        "lat": 42.125,
        "lon": -75.125,
        "delta_T_DJF_K": 2.011838155676628,
        "delta_T_JJA_K": 2.464706896353448,
        "delta_T_MAM_K": 1.1408101068026895,
        "delta_T_SON_K": 2.4014564821571867
      }
    },
    {
      "type": "Feature",
      "geometry": {
        "type": "Point",
        "coordinates": [
          -74.875,
          42.125
        ]
      },
      "properties": {
        "grid_cell": "(42.125, -74.875)",
        "lat": 42.125,
        "lon": -74.875,
        "delta_T_DJF_K": 2.018358024470217,
        "delta_T_JJA_K": 2.496130890777181,
        "delta_T_MAM_K": 1.1573291115138886,
        "delta_T_SON_K": 2.4132187057327883
      }
    },
    {
      "type": "Feature",
      "geometry": {
        "type": "Point",
        "coordinates": [
          -74.625,
          42.125
        ]
      },
      "properties": {
        "grid_cell": "(42.125, -74.625)",
        "lat": 42.125,
        "lon": -74.625,
        "delta_T_DJF_K": 2.019914618706366,
        "delta_T_JJA_K": 2.5066139331762542,
        "delta_T_MAM_K": 1.1782179127568497,
        "delta_T_SON_K": 2.415326363699762
      }
    },
    {
      "type": "Feature",
      "geometry": {
        "type": "Point",
        "coordinates": [
          -75.125,
          42.375
        ]
      },
      "properties": {
        "grid_cell": "(42.375, -75.125)",
        "lat": 42.375,
        "lon": -75.125,
        "delta_T_DJF_K": 2.1179166077798186,
        "delta_T_JJA_K": 2.4137155284052483,
        "delta_T_MAM_K": 1.2008476036182856,
        "delta_T_SON_K": 2.352540906969068
      }
    },
    {
      "type": "Feature",
      "geometry": {
        "type": "Point",
        "coordinates": [
          -74.875,
          42.375
        ]
      },
      "properties": {
        "grid_cell": "(42.375, -74.875)",
        "lat": 42.375,
        "lon": -74.875,
        "delta_T_DJF_K": 2.129304856710462,
        "delta_T_JJA_K": 2.451043192545569,
        "delta_T_MAM_K": 1.2106181158535492,
        "delta_T_SON_K": 2.3702499892684727
      }
    },
    {
      "type": "Feature",
      "geometry": {
        "type": "Point",
        "coordinates": [
          -74.625,
          42.375
        ]
      },
      "properties": {
        "grid_cell": "(42.375, -74.625)",
        "lat": 42.375,
        "lon": -74.625,
        "delta_T_DJF_K": 2.1480290340512056,
        "delta_T_JJA_K": 2.466895349474896,
        "delta_T_MAM_K": 1.2324187900708807,
        "delta_T_SON_K": 2.3786289033436105
      }
    }
  ],
  "metadata": {
    "model": "CMCC-ESM2",
    "variable": "tasmin",
    "scenario": "ssp370",
    "historical_period": "1990-2019",
    "future_period": "2035-2064",
    "baseline_source": "CMCC-ESM2",
    "description": "Additive temperature change factors (\u0394T = CMCC-ESM2 future - CMCC-ESM2 historical) by season for tasmin in Kelvin"
  }
}