{
  "type": "FeatureCollection",
  "features": [
    {
      "type": "Feature",
      "geometry": {
        "type": "Point",
        "coordinates": [
          -75.125,
          42.125
        ]
      },
      "properties": {
        "grid_cell": "(42.125, -75.125)",
        "lat": 42.125,
        "lon": -75.125,
        "delta_T_DJF_K": 2.3086061153820765,
        "delta_T_JJA_K": 1.8071785797101825,
        "delta_T_MAM_K": 1.4079185688405005,
        "delta_T_SON_K": 1.4399469816848978
      }
    },
    {
      "type": "Feature",
      "geometry": {
        "type": "Point",
        "coordinates": [
          -74.875,
          42.125
        ]
      },
      "properties": {
        "grid_cell": "(42.125, -74.875)",
        "lat": 42.125,
        "lon": -74.875,
        "delta_T_DJF_K": 2.290497088331108,
        "delta_T_JJA_K": 1.8122547572464214,
        "delta_T_MAM_K": 1.4071512826087087,
        "delta_T_SON_K": 1.446488846153784
      }
    },
    {
      "type": "Feature",
      "geometry": {
        "type": "Point",
        "coordinates": [
          -74.625,
          42.125
        ]
      },
      "properties": {
        "grid_cell": "(42.125, -74.625)",
        "lat": 42.125,
        "lon": -74.625,
        "delta_T_DJF_K": 2.2724046093981656,
        "delta_T_JJA_K": 1.8173265181159195,
        "delta_T_MAM_K": 1.4063837282608915,
        "delta_T_SON_K": 1.4530273663003754
      }
    },
    {
      "type": "Feature",
      "geometry": {
        "type": "Point",
        "coordinates": [
          -75.125,
          42.375
        ]
      },
      "properties": {
        "grid_cell": "(42.375, -75.125)",
        "lat": 42.375,
        "lon": -75.125,
        "delta_T_DJF_K": 2.3620653826567946,
        "delta_T_JJA_K": 1.774795369565254,
        "delta_T_MAM_K": 1.3989446992753756,
        "delta_T_SON_K": 1.4277857216117127
      }
    },
    {
      "type": "Feature",
      "geometry": {
        "type": "Point",
        "coordinates": [
          -74.875,
          42.375
        ]
      },
      "properties": {
        "grid_cell": "(42.375, -74.875)",
        "lat": 42.375,
        "lon": -74.875,
        "delta_T_DJF_K": 2.3428898600565162,
        "delta_T_JJA_K": 1.7761271413043005,
        "delta_T_MAM_K": 1.3952080036231678,
        "delta_T_SON_K": 1.4308535347985298
      }
    },
    {
      "type": "Feature",
      "geometry": {
        "type": "Point",
        "coordinates": [
          -74.625,
          42.375
        ]
      },
      "properties": {
        "grid_cell": "(42.375, -74.625)",
        "lat": 42.375,
        "lon": -74.625,
        "delta_T_DJF_K": 2.3237361627915902,
        "delta_T_JJA_K": 1.7774523623188543,
        "delta_T_MAM_K": 1.3914756956521614,
        "delta_T_SON_K": 1.433911443223451
      }
    }
  ],
  "metadata": {
    "model": "CNRM-CM6-1",
    "variable": "tasmin",
    "scenario": "ssp370",
    "historical_period": "1990-2019",
    "future_period": "2035-2064",
    "baseline_source": "CNRM-CM6-1",
    "description": "Additive temperature change factors (\u0394T = CNRM-CM6-1 future - CNRM-CM6-1 historical) by season for tasmin in Kelvin"
  }
}