{
  "type": "FeatureCollection",
  "features": [
    {
      "type": "Feature",
      "geometry": {
        "type": "Point",
        "coordinates": [
          -75.125,
          42.125
        ]
      },
      "properties": {
        "grid_cell": "(42.125, -75.125)",
        "lat": 42.125,
        "lon": -75.125,
        "delta_T_DJF_K": 0.46112198822913797,
        "delta_T_JJA_K": 0.5126367971013792,
        "delta_T_MAM_K": 1.739604384057941,
        "delta_T_SON_K": 0.8961880219779914
      }
    },
    {
      "type": "Feature",
      "geometry": {
        "type": "Point",
        "coordinates": [
          -74.875,
          42.125
        ]
      },
      "properties": {
        "grid_cell": "(42.125, -74.875)",
        "lat": 42.125,
        "lon": -74.875,
        "delta_T_DJF_K": 0.4509171967154657,
        "delta_T_JJA_K": 0.518830695652241,
        "delta_T_MAM_K": 1.7227891086956788,
        "delta_T_SON_K": 0.8875568827838833
      }
    },
    {
      "type": "Feature",
      "geometry": {
        "type": "Point",
        "coordinates": [
          -74.625,
          42.125
        ]
      },
      "properties": {
        "grid_cell": "(42.125, -74.625)",
        "lat": 42.125,
        "lon": -74.625,
        "delta_T_DJF_K": 0.466736544617504,
        "delta_T_JJA_K": 0.5559588913043854,
        "delta_T_MAM_K": 1.7001247898550673,
        "delta_T_SON_K": 0.8993362234432425
      }
    },
    {
      "type": "Feature",
      "geometry": {
        "type": "Point",
        "coordinates": [
          -75.125,
          42.375
        ]
      },
      "properties": {
        "grid_cell": "(42.375, -75.125)",
        "lat": 42.375,
        "lon": -75.125,
        "delta_T_DJF_K": 0.5796600805954881,
        "delta_T_JJA_K": 0.5961287463767917,
        "delta_T_MAM_K": 1.7730542137680914,
        "delta_T_SON_K": 0.9642592490843072
      }
    },
    {
      "type": "Feature",
      "geometry": {
        "type": "Point",
        "coordinates": [
          -74.875,
          42.375
        ]
      },
      "properties": {
        "grid_cell": "(42.375, -74.875)",
        "lat": 42.375,
        "lon": -74.875,
        "delta_T_DJF_K": 0.5498215406458371,
        "delta_T_JJA_K": 0.5873989239130424,
        "delta_T_MAM_K": 1.7534607862318694,
        "delta_T_SON_K": 0.934151161172224
      }
    },
    {
      "type": "Feature",
      "geometry": {
        "type": "Point",
        "coordinates": [
          -74.625,
          42.375
        ]
      },
      "properties": {
        "grid_cell": "(42.375, -74.625)",
        "lat": 42.375,
        "lon": -74.625,
        "delta_T_DJF_K": 0.538679419821392,
        "delta_T_JJA_K": 0.5953101195652835,
        "delta_T_MAM_K": 1.7232576268115736,
        "delta_T_SON_K": 0.9107664139193616
      }
    }
  ],
  "metadata": {
    "model": "ACCESS-ESM1-5",
    "variable": "tasmin",
    "scenario": "ssp370",
    "historical_period": "1990-2019",
    "future_period": "2035-2064",
    "baseline_source": "ACCESS-ESM1-5",
    "description": "Additive temperature change factors (\u0394T = ACCESS-ESM1-5 future - ACCESS-ESM1-5 historical) by season for tasmin in Kelvin"
  }
}