{
  "type": "FeatureCollection",
  "features": [
    {
      "type": "Feature",
      "geometry": {
        "type": "Point",
        "coordinates": [
          -75.125,
          42.125
        ]
      },
      "properties": {
        "grid_cell": "(42.125, -75.125)",
        "lat": 42.125,
        "lon": -75.125,
        "cf_DJF": 1.0050645975628776,
        "pct_change_DJF": 0.5064597562877582,
        "cf_JJA": 1.0057736290254888,
        "pct_change_JJA": 0.5773629025488836,
        "cf_MAM": 1.0064973484616286,
        "pct_change_MAM": 0.6497348461628638,
        "cf_SON": 1.0084142854833447,
        "pct_change_SON": 0.8414285483344663
      }
    },
    {
      "type": "Feature",
      "geometry": {
        "type": "Point",
        "coordinates": [
          -74.875,
          42.125
        ]
      },
      "properties": {
        "grid_cell": "(42.125, -74.875)",
        "lat": 42.125,
        "lon": -74.875,
        "cf_DJF": 1.0050960691149893,
        "pct_change_DJF": 0.5096069114989277,
        "cf_JJA": 1.0058124085798201,
        "pct_change_JJA": 0.5812408579820127,
        "cf_MAM": 1.0065243058579676,
        "pct_change_MAM": 0.6524305857967594,
        "cf_SON": 1.008525028568634,
        "pct_change_SON": 0.8525028568634019
      }
    },
    {
      "type": "Feature",
      "geometry": {
        "type": "Point",
        "coordinates": [
          -74.625,
          42.125
        ]
      },
      "properties": {
        "grid_cell": "(42.125, -74.625)",
        "lat": 42.125,
        "lon": -74.625,
        "cf_DJF": 1.0051669193682977,
        "pct_change_DJF": 0.5166919368297718,
        "cf_JJA": 1.0059286038004174,
        "pct_change_JJA": 0.5928603800417376,
        "cf_MAM": 1.0065940325231963,
        "pct_change_MAM": 0.6594032523196347,
        "cf_SON": 1.0086675190364165,
        "pct_change_SON": 0.8667519036416493
      }
    },
    {
      "type": "Feature",
      "geometry": {
        "type": "Point",
        "coordinates": [
          -75.125,
          42.375
        ]
      },
      "properties": {
        "grid_cell": "(42.375, -75.125)",
        "lat": 42.375,
        "lon": -75.125,
        "cf_DJF": 1.0053709806456443,
        "pct_change_DJF": 0.5370980645644341,
        "cf_JJA": 1.0058995644784805,
        "pct_change_JJA": 0.5899564478480501,
        "cf_MAM": 1.0066760671206623,
        "pct_change_MAM": 0.6676067120662266,
        "cf_SON": 1.008464864269943,
        "pct_change_SON": 0.8464864269942973
      }
    },
    {
      "type": "Feature",
      "geometry": {
        "type": "Point",
        "coordinates": [
          -74.875,
          42.375
        ]
      },
      "properties": {
        "grid_cell": "(42.375, -74.875)",
        "lat": 42.375,
        "lon": -74.875,
        "cf_DJF": 1.0054088579919345,
        "pct_change_DJF": 0.5408857991934468,
        "cf_JJA": 1.0059089757274224,
        "pct_change_JJA": 0.5908975727422439,
        "cf_MAM": 1.006699619561302,
        "pct_change_MAM": 0.669961956130205,
        "cf_SON": 1.0085722043088932,
        "pct_change_SON": 0.8572204308893161
      }
    },
    {
      "type": "Feature",
      "geometry": {
        "type": "Point",
        "coordinates": [
          -74.625,
          42.375
        ]
      },
      "properties": {
        "grid_cell": "(42.375, -74.625)",
        "lat": 42.375,
        "lon": -74.625,
        "cf_DJF": 1.0054639343765057,
        "pct_change_DJF": 0.5463934376505719,
        "cf_JJA": 1.005988637805381,
        "pct_change_JJA": 0.5988637805381058,
        "cf_MAM": 1.0067351671744924,
        "pct_change_MAM": 0.6735167174492407,
        "cf_SON": 1.0087009344174371,
        "pct_change_SON": 0.8700934417437134
      }
    }
  ],
  "metadata": {
    "model": "IPSL-CM6A-LR",
    "variable": "tasmin",
    "scenario": "ssp370",
    "historical_period": "1990-2019",
    "future_period": "2035-2064",
    "baseline_source": "IPSL-CM6A-LR",
    "description": "Temperature change factors (IPSL-CM6A-LR future / IPSL-CM6A-LR historical) by season for tasmin"
  }
}