{
  "type": "FeatureCollection",
  "features": [
    {
      "type": "Feature",
      "geometry": {
        "type": "Point",
        "coordinates": [
          -75.125,
          42.125
        ]
      },
      "properties": {
        "grid_cell": "(42.125, -75.125)",
        "lat": 42.125,
        "lon": -75.125,
        "cf_DJF": 1.0063896972655664,
        "pct_change_DJF": 0.6389697265566374,
        "cf_JJA": 1.0044515796811324,
        "pct_change_JJA": 0.44515796811324115,
        "cf_MAM": 1.0064324198824461,
        "pct_change_MAM": 0.6432419882446139,
        "cf_SON": 1.006118404653701,
        "pct_change_SON": 0.611840465370106
      }
    },
    {
      "type": "Feature",
      "geometry": {
        "type": "Point",
        "coordinates": [
          -74.875,
          42.125
        ]
      },
      "properties": {
        "grid_cell": "(42.125, -74.875)",
        "lat": 42.125,
        "lon": -74.875,
        "cf_DJF": 1.0064259929450126,
        "pct_change_DJF": 0.642599294501256,
        "cf_JJA": 1.0044478745279168,
        "pct_change_JJA": 0.44478745279168397,
        "cf_MAM": 1.006442010067311,
        "pct_change_MAM": 0.6442010067311044,
        "cf_SON": 1.0060802386096543,
        "pct_change_SON": 0.6080238609654343
      }
    },
    {
      "type": "Feature",
      "geometry": {
        "type": "Point",
        "coordinates": [
          -74.625,
          42.125
        ]
      },
      "properties": {
        "grid_cell": "(42.125, -74.625)",
        "lat": 42.125,
        "lon": -74.625,
        "cf_DJF": 1.0064731452697355,
        "pct_change_DJF": 0.6473145269735525,
        "cf_JJA": 1.0044502655606486,
        "pct_change_JJA": 0.44502655606486474,
        "cf_MAM": 1.0064618925365243,
        "pct_change_MAM": 0.6461892536524294,
        "cf_SON": 1.006051225885423,
        "pct_change_SON": 0.6051225885423062
      }
    },
    {
      "type": "Feature",
      "geometry": {
        "type": "Point",
        "coordinates": [
          -75.125,
          42.375
        ]
      },
      "properties": {
        "grid_cell": "(42.375, -75.125)",
        "lat": 42.375,
        "lon": -75.125,
        "cf_DJF": 1.006390952821265,
        "pct_change_DJF": 0.6390952821264895,
        "cf_JJA": 1.0044271391482025,
        "pct_change_JJA": 0.44271391482024747,
        "cf_MAM": 1.0065683187667345,
        "pct_change_MAM": 0.6568318766734471,
        "cf_SON": 1.0062040005876345,
        "pct_change_SON": 0.6204000587634484
      }
    },
    {
      "type": "Feature",
      "geometry": {
        "type": "Point",
        "coordinates": [
          -74.875,
          42.375
        ]
      },
      "properties": {
        "grid_cell": "(42.375, -74.875)",
        "lat": 42.375,
        "lon": -74.875,
        "cf_DJF": 1.0064400108810152,
        "pct_change_DJF": 0.6440010881015201,
        "cf_JJA": 1.0044139299827264,
        "pct_change_JJA": 0.44139299827263834,
        "cf_MAM": 1.006576614859707,
        "pct_change_MAM": 0.6576614859707064,
        "cf_SON": 1.0061696422767061,
        "pct_change_SON": 0.6169642276706133
      }
    },
    {
      "type": "Feature",
      "geometry": {
        "type": "Point",
        "coordinates": [
          -74.625,
          42.375
        ]
      },
      "properties": {
        "grid_cell": "(42.375, -74.625)",
        "lat": 42.375,
        "lon": -74.625,
        "cf_DJF": 1.006494336650248,
        "pct_change_DJF": 0.64943366502479,
        "cf_JJA": 1.0044028608457825,
        "pct_change_JJA": 0.44028608457824525,
        "cf_MAM": 1.0065895044309445,
        "pct_change_MAM": 0.6589504430944526,
        "cf_SON": 1.0061391215824418,
        "pct_change_SON": 0.6139121582441787
      }
    }
  ],
  "metadata": {
    "model": "INM-CM5-0",
    "variable": "tasmax",
    "scenario": "ssp370",
    "historical_period": "1990-2019",
    "future_period": "2035-2064",
    "baseline_source": "INM-CM5-0",
    "description": "Temperature change factors (INM-CM5-0 future / INM-CM5-0 historical) by season for tasmax"
  }
}