{
  "type": "FeatureCollection",
  "features": [
    {
      "type": "Feature",
      "geometry": {
        "type": "Point",
        "coordinates": [
          -75.125,
          42.125
        ]
      },
      "properties": {
        "grid_cell": "(42.125, -75.125)",
        "lat": 42.125,
        "lon": -75.125,
        "cf_DJF": 1.0075930973419271,
        "pct_change_DJF": 0.7593097341927146,
        "cf_JJA": 1.0085835537017336,
        "pct_change_JJA": 0.8583553701733582,
        "cf_MAM": 1.0041578635358708,
        "pct_change_MAM": 0.4157863535870776,
        "cf_SON": 1.00864672204503,
        "pct_change_SON": 0.864672204502992
      }
    },
    {
      "type": "Feature",
      "geometry": {
        "type": "Point",
        "coordinates": [
          -74.875,
          42.125
        ]
      },
      "properties": {
        "grid_cell": "(42.125, -74.875)",
        "lat": 42.125,
        "lon": -74.875,
        "cf_DJF": 1.0076318364183199,
        "pct_change_DJF": 0.7631836418319882,
        "cf_JJA": 1.0087079361389604,
        "pct_change_JJA": 0.870793613896037,
        "cf_MAM": 1.00422594840796,
        "pct_change_MAM": 0.42259484079600895,
        "cf_SON": 1.0087038078325818,
        "pct_change_SON": 0.8703807832581845
      }
    },
    {
      "type": "Feature",
      "geometry": {
        "type": "Point",
        "coordinates": [
          -74.625,
          42.125
        ]
      },
      "properties": {
        "grid_cell": "(42.125, -74.625)",
        "lat": 42.125,
        "lon": -74.625,
        "cf_DJF": 1.0076616761905768,
        "pct_change_DJF": 0.7661676190576783,
        "cf_JJA": 1.008769057001532,
        "pct_change_JJA": 0.8769057001531966,
        "cf_MAM": 1.0043150275230002,
        "pct_change_MAM": 0.431502752300017,
        "cf_SON": 1.0087369929343184,
        "pct_change_SON": 0.8736992934318399
      }
    },
    {
      "type": "Feature",
      "geometry": {
        "type": "Point",
        "coordinates": [
          -75.125,
          42.375
        ]
      },
      "properties": {
        "grid_cell": "(42.375, -75.125)",
        "lat": 42.375,
        "lon": -75.125,
        "cf_DJF": 1.0079991091041323,
        "pct_change_DJF": 0.7999109104132263,
        "cf_JJA": 1.0084055155464324,
        "pct_change_JJA": 0.8405515546432429,
        "cf_MAM": 1.0043773996776073,
        "pct_change_MAM": 0.43773996776073076,
        "cf_SON": 1.0084699154408536,
        "pct_change_SON": 0.8469915440853626
      }
    },
    {
      "type": "Feature",
      "geometry": {
        "type": "Point",
        "coordinates": [
          -74.875,
          42.375
        ]
      },
      "properties": {
        "grid_cell": "(42.375, -74.875)",
        "lat": 42.375,
        "lon": -74.875,
        "cf_DJF": 1.0080602027801029,
        "pct_change_DJF": 0.8060202780102887,
        "cf_JJA": 1.008552508059556,
        "pct_change_JJA": 0.8552508059556096,
        "cf_MAM": 1.004422633597413,
        "pct_change_MAM": 0.4422633597412906,
        "cf_SON": 1.0085513715504661,
        "pct_change_SON": 0.8551371550466147
      }
    },
    {
      "type": "Feature",
      "geometry": {
        "type": "Point",
        "coordinates": [
          -74.625,
          42.375
        ]
      },
      "properties": {
        "grid_cell": "(42.375, -74.625)",
        "lat": 42.375,
        "lon": -74.625,
        "cf_DJF": 1.0081518709991502,
        "pct_change_DJF": 0.8151870999150157,
        "cf_JJA": 1.0086263635182358,
        "pct_change_JJA": 0.8626363518235758,
        "cf_MAM": 1.0045127601482227,
        "pct_change_MAM": 0.4512760148222661,
        "cf_SON": 1.008602108919729,
        "pct_change_SON": 0.8602108919729012
      }
    }
  ],
  "metadata": {
    "model": "CMCC-ESM2",
    "variable": "tasmin",
    "scenario": "ssp370",
    "historical_period": "1990-2019",
    "future_period": "2035-2064",
    "baseline_source": "CMCC-ESM2",
    "description": "Temperature change factors (CMCC-ESM2 future / CMCC-ESM2 historical) by season for tasmin"
  }
}