{
  "type": "FeatureCollection",
  "features": [
    {
      "type": "Feature",
      "geometry": {
        "type": "Point",
        "coordinates": [
          -75.125,
          42.125
        ]
      },
      "properties": {
        "grid_cell": "(42.125, -75.125)",
        "lat": 42.125,
        "lon": -75.125,
        "delta_T_DJF_K": 0.5280171735482782,
        "delta_T_JJA_K": 1.8561371702898555,
        "delta_T_MAM_K": 2.5493158369565094,
        "delta_T_SON_K": 2.6703853406593794
      }
    },
    {
      "type": "Feature",
      "geometry": {
        "type": "Point",
        "coordinates": [
          -74.875,
          42.125
        ]
      },
      "properties": {
        "grid_cell": "(42.125, -74.875)",
        "lat": 42.125,
        "lon": -74.875,
        "delta_T_DJF_K": 0.5434948982122592,
        "delta_T_JJA_K": 1.8548522934783023,
        "delta_T_MAM_K": 2.5468847500000606,
        "delta_T_SON_K": 2.679526194139214
      }
    },
    {
      "type": "Feature",
      "geometry": {
        "type": "Point",
        "coordinates": [
          -74.625,
          42.125
        ]
      },
      "properties": {
        "grid_cell": "(42.125, -74.625)",
        "lat": 42.125,
        "lon": -74.625,
        "delta_T_DJF_K": 0.5682244031499408,
        "delta_T_JJA_K": 1.8660011702897918,
        "delta_T_MAM_K": 2.5476166304347316,
        "delta_T_SON_K": 2.6909658791208813
      }
    },
    {
      "type": "Feature",
      "geometry": {
        "type": "Point",
        "coordinates": [
          -75.125,
          42.375
        ]
      },
      "properties": {
        "grid_cell": "(42.375, -75.125)",
        "lat": 42.375,
        "lon": -75.125,
        "delta_T_DJF_K": 0.5599115914610593,
        "delta_T_JJA_K": 1.8737521195652107,
        "delta_T_MAM_K": 2.5795354239130575,
        "delta_T_SON_K": 2.6608575714285507
      }
    },
    {
      "type": "Feature",
      "geometry": {
        "type": "Point",
        "coordinates": [
          -74.875,
          42.375
        ]
      },
      "properties": {
        "grid_cell": "(42.375, -74.875)",
        "lat": 42.375,
        "lon": -74.875,
        "delta_T_DJF_K": 0.5709437779767654,
        "delta_T_JJA_K": 1.8675923804348145,
        "delta_T_MAM_K": 2.575067329710123,
        "delta_T_SON_K": 2.6679163333333236
      }
    },
    {
      "type": "Feature",
      "geometry": {
        "type": "Point",
        "coordinates": [
          -74.625,
          42.375
        ]
      },
      "properties": {
        "grid_cell": "(42.375, -74.625)",
        "lat": 42.375,
        "lon": -74.625,
        "delta_T_DJF_K": 0.5901785433852638,
        "delta_T_JJA_K": 1.8734057572463598,
        "delta_T_MAM_K": 2.569253695652151,
        "delta_T_SON_K": 2.6780391172161444
      }
    }
  ],
  "metadata": {
    "model": "IPSL-CM6A-LR",
    "variable": "tasmax",
    "scenario": "ssp370",
    "historical_period": "1990-2019",
    "future_period": "2035-2064",
    "baseline_source": "IPSL-CM6A-LR",
    "description": "Additive temperature change factors (\u0394T = IPSL-CM6A-LR future - IPSL-CM6A-LR historical) by season for tasmax in Kelvin"
  }
}