{
  "type": "FeatureCollection",
  "features": [
    {
      "type": "Feature",
      "geometry": {
        "type": "Point",
        "coordinates": [
          -75.125,
          42.125
        ]
      },
      "properties": {
        "grid_cell": "(42.125, -75.125)",
        "lat": 42.125,
        "lon": -75.125,
        "delta_T_DJF_K": 2.015387851968967,
        "delta_T_JJA_K": 1.9630411340580167,
        "delta_T_MAM_K": 1.4972776557970633,
        "delta_T_SON_K": 1.7344467692307148
      }
    },
    {
      "type": "Feature",
      "geometry": {
        "type": "Point",
        "coordinates": [
          -74.875,
          42.125
        ]
      },
      "properties": {
        "grid_cell": "(42.125, -74.875)",
        "lat": 42.125,
        "lon": -74.875,
        "delta_T_DJF_K": 2.0098250440046854,
        "delta_T_JJA_K": 1.9576110507246653,
        "delta_T_MAM_K": 1.4924312318839839,
        "delta_T_SON_K": 1.7447503003662632
      }
    },
    {
      "type": "Feature",
      "geometry": {
        "type": "Point",
        "coordinates": [
          -74.625,
          42.125
        ]
      },
      "properties": {
        "grid_cell": "(42.125, -74.625)",
        "lat": 42.125,
        "lon": -74.625,
        "delta_T_DJF_K": 2.004237449533491,
        "delta_T_JJA_K": 1.9521945108696173,
        "delta_T_MAM_K": 1.4875860434782453,
        "delta_T_SON_K": 1.7550589597069006
      }
    },
    {
      "type": "Feature",
      "geometry": {
        "type": "Point",
        "coordinates": [
          -75.125,
          42.375
        ]
      },
      "properties": {
        "grid_cell": "(42.375, -75.125)",
        "lat": 42.375,
        "lon": -75.125,
        "delta_T_DJF_K": 1.9987700522561909,
        "delta_T_JJA_K": 1.9508296811593482,
        "delta_T_MAM_K": 1.5051460833333863,
        "delta_T_SON_K": 1.727249117216104
      }
    },
    {
      "type": "Feature",
      "geometry": {
        "type": "Point",
        "coordinates": [
          -74.875,
          42.375
        ]
      },
      "properties": {
        "grid_cell": "(42.375, -74.875)",
        "lat": 42.375,
        "lon": -74.875,
        "delta_T_DJF_K": 1.9927370889631106,
        "delta_T_JJA_K": 1.9411202971014063,
        "delta_T_MAM_K": 1.4983806304348377,
        "delta_T_SON_K": 1.737455241758255
      }
    },
    {
      "type": "Feature",
      "geometry": {
        "type": "Point",
        "coordinates": [
          -74.625,
          42.375
        ]
      },
      "properties": {
        "grid_cell": "(42.375, -74.625)",
        "lat": 42.375,
        "lon": -74.625,
        "delta_T_DJF_K": 1.9866689196341554,
        "delta_T_JJA_K": 1.9314193297101951,
        "delta_T_MAM_K": 1.4916230615942254,
        "delta_T_SON_K": 1.7476639890110164
      }
    }
  ],
  "metadata": {
    "model": "CNRM-CM6-1",
    "variable": "tasmax",
    "scenario": "ssp370",
    "historical_period": "1990-2019",
    "future_period": "2035-2064",
    "baseline_source": "CNRM-CM6-1",
    "description": "Additive temperature change factors (\u0394T = CNRM-CM6-1 future - CNRM-CM6-1 historical) by season for tasmax in Kelvin"
  }
}