{
  "type": "FeatureCollection",
  "features": [
    {
      "type": "Feature",
      "geometry": {
        "type": "Point",
        "coordinates": [
          -75.125,
          42.125
        ]
      },
      "properties": {
        "grid_cell": "(42.125, -75.125)",
        "lat": 42.125,
        "lon": -75.125,
        "delta_T_DJF_K": 2.4079868632753687,
        "delta_T_JJA_K": 1.664087776515771,
        "delta_T_MAM_K": 1.874200185139955,
        "delta_T_SON_K": 1.688127359802479
      }
    },
    {
      "type": "Feature",
      "geometry": {
        "type": "Point",
        "coordinates": [
          -74.875,
          42.125
        ]
      },
      "properties": {
        "grid_cell": "(42.125, -74.875)",
        "lat": 42.125,
        "lon": -74.875,
        "delta_T_DJF_K": 2.401266599988787,
        "delta_T_JJA_K": 1.6867065097974887,
        "delta_T_MAM_K": 1.8577403635218843,
        "delta_T_SON_K": 1.6888451321221396
      }
    },
    {
      "type": "Feature",
      "geometry": {
        "type": "Point",
        "coordinates": [
          -74.625,
          42.125
        ]
      },
      "properties": {
        "grid_cell": "(42.125, -74.625)",
        "lat": 42.125,
        "lon": -74.625,
        "delta_T_DJF_K": 2.39454672015529,
        "delta_T_JJA_K": 1.7093259065047164,
        "delta_T_MAM_K": 1.8412808625594153,
        "delta_T_SON_K": 1.68956332363922
      }
    },
    {
      "type": "Feature",
      "geometry": {
        "type": "Point",
        "coordinates": [
          -75.125,
          42.375
        ]
      },
      "properties": {
        "grid_cell": "(42.375, -75.125)",
        "lat": 42.375,
        "lon": -75.125,
        "delta_T_DJF_K": 2.52863240044627,
        "delta_T_JJA_K": 1.6463147370711795,
        "delta_T_MAM_K": 1.9011242189269524,
        "delta_T_SON_K": 1.745811188526659
      }
    },
    {
      "type": "Feature",
      "geometry": {
        "type": "Point",
        "coordinates": [
          -74.875,
          42.375
        ]
      },
      "properties": {
        "grid_cell": "(42.375, -74.875)",
        "lat": 42.375,
        "lon": -74.875,
        "delta_T_DJF_K": 2.5283294370190674,
        "delta_T_JJA_K": 1.6647355563398492,
        "delta_T_MAM_K": 1.8809220963630082,
        "delta_T_SON_K": 1.7479145147862027
      }
    },
    {
      "type": "Feature",
      "geometry": {
        "type": "Point",
        "coordinates": [
          -74.625,
          42.375
        ]
      },
      "properties": {
        "grid_cell": "(42.375, -74.625)",
        "lat": 42.375,
        "lon": -74.625,
        "delta_T_DJF_K": 2.5280254786673027,
        "delta_T_JJA_K": 1.6831567515498023,
        "delta_T_MAM_K": 1.8607194707013264,
        "delta_T_SON_K": 1.7500174386160552
      }
    }
  ],
  "metadata": {
    "model": "INM-CM5-0",
    "variable": "tasmin",
    "scenario": "ssp370",
    "historical_period": "1990-2019",
    "future_period": "2035-2064",
    "baseline_source": "INM-CM5-0",
    "description": "Additive temperature change factors (\u0394T = INM-CM5-0 future - INM-CM5-0 historical) by season for tasmin in Kelvin"
  }
}