{
  "type": "FeatureCollection",
  "features": [
    {
      "type": "Feature",
      "geometry": {
        "type": "Point",
        "coordinates": [
          -75.125,
          42.125
        ]
      },
      "properties": {
        "grid_cell": "(42.125, -75.125)",
        "lat": 42.125,
        "lon": -75.125,
        "delta_T_DJF_K": 0.8662854599950265,
        "delta_T_JJA_K": 2.9755553297101187,
        "delta_T_MAM_K": 2.7612850724638065,
        "delta_T_SON_K": 2.575621567765495
      }
    },
    {
      "type": "Feature",
      "geometry": {
        "type": "Point",
        "coordinates": [
          -74.875,
          42.125
        ]
      },
      "properties": {
        "grid_cell": "(42.125, -74.875)",
        "lat": 42.125,
        "lon": -74.875,
        "delta_T_DJF_K": 0.8755258649976554,
        "delta_T_JJA_K": 2.9636755543477875,
        "delta_T_MAM_K": 2.7368041195652495,
        "delta_T_SON_K": 2.57914976556782
      }
    },
    {
      "type": "Feature",
      "geometry": {
        "type": "Point",
        "coordinates": [
          -74.625,
          42.125
        ]
      },
      "properties": {
        "grid_cell": "(42.125, -74.625)",
        "lat": 42.125,
        "lon": -74.625,
        "delta_T_DJF_K": 0.8910374427545094,
        "delta_T_JJA_K": 2.9244403985507006,
        "delta_T_MAM_K": 2.701949797101406,
        "delta_T_SON_K": 2.5696018864468897
      }
    },
    {
      "type": "Feature",
      "geometry": {
        "type": "Point",
        "coordinates": [
          -75.125,
          42.375
        ]
      },
      "properties": {
        "grid_cell": "(42.375, -75.125)",
        "lat": 42.375,
        "lon": -75.125,
        "delta_T_DJF_K": 0.8703638546444381,
        "delta_T_JJA_K": 2.8658504963767086,
        "delta_T_MAM_K": 2.7274118695652305,
        "delta_T_SON_K": 2.5098443516483258
      }
    },
    {
      "type": "Feature",
      "geometry": {
        "type": "Point",
        "coordinates": [
          -74.875,
          42.375
        ]
      },
      "properties": {
        "grid_cell": "(42.375, -74.875)",
        "lat": 42.375,
        "lon": -74.875,
        "delta_T_DJF_K": 0.8758493788236024,
        "delta_T_JJA_K": 2.874507601449295,
        "delta_T_MAM_K": 2.7163155253622904,
        "delta_T_SON_K": 2.525291970695946
      }
    },
    {
      "type": "Feature",
      "geometry": {
        "type": "Point",
        "coordinates": [
          -74.625,
          42.375
        ]
      },
      "properties": {
        "grid_cell": "(42.375, -74.625)",
        "lat": 42.375,
        "lon": -74.625,
        "delta_T_DJF_K": 0.886266837850826,
        "delta_T_JJA_K": 2.874839478260867,
        "delta_T_MAM_K": 2.7065929782608578,
        "delta_T_SON_K": 2.539309663003678
      }
    }
  ],
  "metadata": {
    "model": "ACCESS-ESM1-5",
    "variable": "tasmax",
    "scenario": "ssp370",
    "historical_period": "1990-2019",
    "future_period": "2035-2064",
    "baseline_source": "ACCESS-ESM1-5",
    "description": "Additive temperature change factors (\u0394T = ACCESS-ESM1-5 future - ACCESS-ESM1-5 historical) by season for tasmax in Kelvin"
  }
}