{
  "type": "FeatureCollection",
  "features": [
    {
      "type": "Feature",
      "geometry": {
        "type": "Point",
        "coordinates": [
          -75.125,
          42.125
        ]
      },
      "properties": {
        "grid_cell": "(42.125, -75.125)",
        "lat": 42.125,
        "lon": -75.125,
        "cf_DJF": 1.036321579012313,
        "pct_change_DJF": 3.632157901231303,
        "cf_JJA": 0.8640733694370087,
        "pct_change_JJA": -13.592663056299125,
        "cf_MAM": 0.9632610299764612,
        "pct_change_MAM": -3.6738970023538764,
        "cf_SON": 0.8155894480646788,
        "pct_change_SON": -18.44105519353212
      }
    },
    {
      "type": "Feature",
      "geometry": {
        "type": "Point",
        "coordinates": [
          -74.875,
          42.125
        ]
      },
      "properties": {
        "grid_cell": "(42.125, -74.875)",
        "lat": 42.125,
        "lon": -74.875,
        "cf_DJF": 1.1664516001983924,
        "pct_change_DJF": 16.645160019839246,
        "cf_JJA": 0.8806188205555757,
        "pct_change_JJA": -11.938117944442428,
        "cf_MAM": 1.0329543489927457,
        "pct_change_MAM": 3.295434899274574,
        "cf_SON": 0.8798732210051678,
        "pct_change_SON": -12.012677899483215
      }
    },
    {
      "type": "Feature",
      "geometry": {
        "type": "Point",
        "coordinates": [
          -74.625,
          42.125
        ]
      },
      "properties": {
        "grid_cell": "(42.125, -74.625)",
        "lat": 42.125,
        "lon": -74.625,
        "cf_DJF": 1.2532582374098837,
        "pct_change_DJF": 25.325823740988373,
        "cf_JJA": 0.9236215395222688,
        "pct_change_JJA": -7.637846047773122,
        "cf_MAM": 1.080823610456741,
        "pct_change_MAM": 8.082361045674102,
        "cf_SON": 0.8934848382318876,
        "pct_change_SON": -10.651516176811239
      }
    },
    {
      "type": "Feature",
      "geometry": {
        "type": "Point",
        "coordinates": [
          -75.125,
          42.375
        ]
      },
      "properties": {
        "grid_cell": "(42.375, -75.125)",
        "lat": 42.375,
        "lon": -75.125,
        "cf_DJF": 1.1434245782349104,
        "pct_change_DJF": 14.342457823491038,
        "cf_JJA": 0.925546703139674,
        "pct_change_JJA": -7.445329686032598,
        "cf_MAM": 1.0504428959612415,
        "pct_change_MAM": 5.044289596124152,
        "cf_SON": 0.9295178172377756,
        "pct_change_SON": -7.04821827622244
      }
    },
    {
      "type": "Feature",
      "geometry": {
        "type": "Point",
        "coordinates": [
          -74.875,
          42.375
        ]
      },
      "properties": {
        "grid_cell": "(42.375, -74.875)",
        "lat": 42.375,
        "lon": -74.875,
        "cf_DJF": 1.1331720250400936,
        "pct_change_DJF": 13.317202504009362,
        "cf_JJA": 0.925317873356054,
        "pct_change_JJA": -7.468212664394603,
        "cf_MAM": 1.040033300290477,
        "pct_change_MAM": 4.003330029047691,
        "cf_SON": 0.9132016624381717,
        "pct_change_SON": -8.67983375618283
      }
    },
    {
      "type": "Feature",
      "geometry": {
        "type": "Point",
        "coordinates": [
          -74.625,
          42.375
        ]
      },
      "properties": {
        "grid_cell": "(42.375, -74.625)",
        "lat": 42.375,
        "lon": -74.625,
        "cf_DJF": 1.2537939954170523,
        "pct_change_DJF": 25.379399541705226,
        "cf_JJA": 1.0156319415744626,
        "pct_change_JJA": 1.5631941574462571,
        "cf_MAM": 1.0931266734517882,
        "pct_change_MAM": 9.312667345178816,
        "cf_SON": 1.0024727395775985,
        "pct_change_SON": 0.24727395775985261
      }
    }
  ],
  "metadata": {
    "model": "IPSL-CM6A-LR",
    "variable": "precipitation",
    "scenario": "ssp370",
    "historical_period": "2015-2019",
    "future_period": "2035-2064",
    "description": "Precipitation change factors (future/historical) by season"
  }
}