{
  "type": "FeatureCollection",
  "features": [
    {
      "type": "Feature",
      "geometry": {
        "type": "Point",
        "coordinates": [
          -75.125,
          42.125
        ]
      },
      "properties": {
        "grid_cell": "(42.125, -75.125)",
        "lat": 42.125,
        "lon": -75.125,
        "cf_DJF": 1.1874829175661386,
        "pct_change_DJF": 18.748291756613856,
        "cf_JJA": 1.0555792988051245,
        "pct_change_JJA": 5.557929880512447,
        "cf_MAM": 1.0411087663472254,
        "pct_change_MAM": 4.110876634722538,
        "cf_SON": 1.1189560034522734,
        "pct_change_SON": 11.895600345227342
      }
    },
    {
      "type": "Feature",
      "geometry": {
        "type": "Point",
        "coordinates": [
          -74.875,
          42.125
        ]
      },
      "properties": {
        "grid_cell": "(42.125, -74.875)",
        "lat": 42.125,
        "lon": -74.875,
        "cf_DJF": 1.1882218706882584,
        "pct_change_DJF": 18.822187068825833,
        "cf_JJA": 1.0664885452464254,
        "pct_change_JJA": 6.648854524642545,
        "cf_MAM": 1.0361061192110195,
        "pct_change_MAM": 3.610611921101947,
        "cf_SON": 1.1225372581611701,
        "pct_change_SON": 12.253725816117012
      }
    },
    {
      "type": "Feature",
      "geometry": {
        "type": "Point",
        "coordinates": [
          -74.625,
          42.125
        ]
      },
      "properties": {
        "grid_cell": "(42.125, -74.625)",
        "lat": 42.125,
        "lon": -74.625,
        "cf_DJF": 1.184071798146641,
        "pct_change_DJF": 18.40717981466411,
        "cf_JJA": 1.075241744746702,
        "pct_change_JJA": 7.524174474670198,
        "cf_MAM": 1.0290693853036812,
        "pct_change_MAM": 2.9069385303681194,
        "cf_SON": 1.1110151925425977,
        "pct_change_SON": 11.101519254259774
      }
    },
    {
      "type": "Feature",
      "geometry": {
        "type": "Point",
        "coordinates": [
          -75.125,
          42.375
        ]
      },
      "properties": {
        "grid_cell": "(42.375, -75.125)",
        "lat": 42.375,
        "lon": -75.125,
        "cf_DJF": 1.1827453318129613,
        "pct_change_DJF": 18.27453318129613,
        "cf_JJA": 1.0667016051563287,
        "pct_change_JJA": 6.6701605156328725,
        "cf_MAM": 1.0734827351773706,
        "pct_change_MAM": 7.348273517737058,
        "cf_SON": 1.095202039302872,
        "pct_change_SON": 9.520203930287208
      }
    },
    {
      "type": "Feature",
      "geometry": {
        "type": "Point",
        "coordinates": [
          -74.875,
          42.375
        ]
      },
      "properties": {
        "grid_cell": "(42.375, -74.875)",
        "lat": 42.375,
        "lon": -74.875,
        "cf_DJF": 1.1830923851799817,
        "pct_change_DJF": 18.30923851799817,
        "cf_JJA": 1.0786473348533967,
        "pct_change_JJA": 7.86473348533967,
        "cf_MAM": 1.0671156382665814,
        "pct_change_MAM": 6.71156382665814,
        "cf_SON": 1.0994929652755572,
        "pct_change_SON": 9.949296527555717
      }
    },
    {
      "type": "Feature",
      "geometry": {
        "type": "Point",
        "coordinates": [
          -74.625,
          42.375
        ]
      },
      "properties": {
        "grid_cell": "(42.375, -74.625)",
        "lat": 42.375,
        "lon": -74.625,
        "cf_DJF": 1.1791244498432691,
        "pct_change_DJF": 17.912444984326914,
        "cf_JJA": 1.0874145331807687,
        "pct_change_JJA": 8.741453318076875,
        "cf_MAM": 1.0555108085498175,
        "pct_change_MAM": 5.551080854981749,
        "cf_SON": 1.0941785787941785,
        "pct_change_SON": 9.417857879417845
      }
    }
  ],
  "metadata": {
    "model": "IPSL-CM6A-LR",
    "variable": "precipitation",
    "scenario": "ssp370",
    "historical_period": "2015-2019",
    "future_period": "2035-2064",
    "description": "Precipitation change factors (future/historical) by season"
  }
}