{
  "type": "FeatureCollection",
  "features": [
    {
      "type": "Feature",
      "geometry": {
        "type": "Point",
        "coordinates": [
          -75.125,
          42.125
        ]
      },
      "properties": {
        "grid_cell": "(42.125, -75.125)",
        "lat": 42.125,
        "lon": -75.125,
        "cf_DJF": 0.9978023890334349,
        "pct_change_DJF": -0.21976109665651222,
        "cf_JJA": 0.8558380778897808,
        "pct_change_JJA": -14.416192211021917,
        "cf_MAM": 1.0021077218845538,
        "pct_change_MAM": 0.21077218845537704,
        "cf_SON": 0.7742093503201696,
        "pct_change_SON": -22.579064967983044
      }
    },
    {
      "type": "Feature",
      "geometry": {
        "type": "Point",
        "coordinates": [
          -74.875,
          42.125
        ]
      },
      "properties": {
        "grid_cell": "(42.125, -74.875)",
        "lat": 42.125,
        "lon": -74.875,
        "cf_DJF": 1.1211855098645926,
        "pct_change_DJF": 12.118550986459265,
        "cf_JJA": 0.8706594119327713,
        "pct_change_JJA": -12.93405880672287,
        "cf_MAM": 1.0767650656718828,
        "pct_change_MAM": 7.676506567188279,
        "cf_SON": 0.8363022198522628,
        "pct_change_SON": -16.36977801477372
      }
    },
    {
      "type": "Feature",
      "geometry": {
        "type": "Point",
        "coordinates": [
          -74.625,
          42.125
        ]
      },
      "properties": {
        "grid_cell": "(42.125, -74.625)",
        "lat": 42.125,
        "lon": -74.625,
        "cf_DJF": 1.2025269238994223,
        "pct_change_DJF": 20.25269238994223,
        "cf_JJA": 0.9071275349995951,
        "pct_change_JJA": -9.287246500040492,
        "cf_MAM": 1.1312820208643282,
        "pct_change_MAM": 13.128202086432816,
        "cf_SON": 0.8491493648697397,
        "pct_change_SON": -15.085063513026032
      }
    },
    {
      "type": "Feature",
      "geometry": {
        "type": "Point",
        "coordinates": [
          -75.125,
          42.375
        ]
      },
      "properties": {
        "grid_cell": "(42.375, -75.125)",
        "lat": 42.375,
        "lon": -75.125,
        "cf_DJF": 1.1135072421272385,
        "pct_change_DJF": 11.35072421272385,
        "cf_JJA": 0.9146740179267546,
        "pct_change_JJA": -8.532598207324538,
        "cf_MAM": 1.0829273979589014,
        "pct_change_MAM": 8.292739795890135,
        "cf_SON": 0.8816989867505631,
        "pct_change_SON": -11.830101324943687
      }
    },
    {
      "type": "Feature",
      "geometry": {
        "type": "Point",
        "coordinates": [
          -74.875,
          42.375
        ]
      },
      "properties": {
        "grid_cell": "(42.375, -74.875)",
        "lat": 42.375,
        "lon": -74.875,
        "cf_DJF": 1.1010079101899428,
        "pct_change_DJF": 10.100791018994283,
        "cf_JJA": 0.9134617764492707,
        "pct_change_JJA": -8.653822355072926,
        "cf_MAM": 1.0737026232644635,
        "pct_change_MAM": 7.370262326446353,
        "cf_SON": 0.86660238411773,
        "pct_change_SON": -13.339761588226995
      }
    },
    {
      "type": "Feature",
      "geometry": {
        "type": "Point",
        "coordinates": [
          -74.625,
          42.375
        ]
      },
      "properties": {
        "grid_cell": "(42.375, -74.625)",
        "lat": 42.375,
        "lon": -74.625,
        "cf_DJF": 1.2151096964362567,
        "pct_change_DJF": 21.510969643625664,
        "cf_JJA": 0.9973999345970802,
        "pct_change_JJA": -0.26000654029197934,
        "cf_MAM": 1.1329566083916722,
        "pct_change_MAM": 13.295660839167223,
        "cf_SON": 0.9507803769635038,
        "pct_change_SON": -4.921962303649618
      }
    }
  ],
  "metadata": {
    "model": "CNRM-CM6-1",
    "variable": "precipitation",
    "scenario": "ssp370",
    "historical_period": "2015-2019",
    "future_period": "2035-2064",
    "description": "Precipitation change factors (future/historical) by season"
  }
}