{
  "type": "FeatureCollection",
  "features": [
    {
      "type": "Feature",
      "geometry": {
        "type": "Point",
        "coordinates": [
          -75.125,
          42.125
        ]
      },
      "properties": {
        "grid_cell": "(42.125, -75.125)",
        "lat": 42.125,
        "lon": -75.125,
        "cf_DJF": 1.0070404601458454,
        "pct_change_DJF": 0.7040460145845362,
        "cf_JJA": 0.8866503318098862,
        "pct_change_JJA": -11.334966819011383,
        "cf_MAM": 1.082533875095428,
        "pct_change_MAM": 8.253387509542808,
        "cf_SON": 0.9628250583363904,
        "pct_change_SON": -3.7174941663609573
      }
    },
    {
      "type": "Feature",
      "geometry": {
        "type": "Point",
        "coordinates": [
          -74.875,
          42.125
        ]
      },
      "properties": {
        "grid_cell": "(42.125, -74.875)",
        "lat": 42.125,
        "lon": -74.875,
        "cf_DJF": 1.1330359541009536,
        "pct_change_DJF": 13.303595410095358,
        "cf_JJA": 0.904746196716057,
        "pct_change_JJA": -9.525380328394295,
        "cf_MAM": 1.1662738516860827,
        "pct_change_MAM": 16.627385168608267,
        "cf_SON": 1.0473124235406024,
        "pct_change_SON": 4.731242354060239
      }
    },
    {
      "type": "Feature",
      "geometry": {
        "type": "Point",
        "coordinates": [
          -74.625,
          42.125
        ]
      },
      "properties": {
        "grid_cell": "(42.125, -74.625)",
        "lat": 42.125,
        "lon": -74.625,
        "cf_DJF": 1.2202203370050764,
        "pct_change_DJF": 22.022033700507638,
        "cf_JJA": 0.9415401836326999,
        "pct_change_JJA": -5.845981636730013,
        "cf_MAM": 1.2246540548043434,
        "pct_change_MAM": 22.46540548043434,
        "cf_SON": 1.0684568335921685,
        "pct_change_SON": 6.845683359216848
      }
    },
    {
      "type": "Feature",
      "geometry": {
        "type": "Point",
        "coordinates": [
          -75.125,
          42.375
        ]
      },
      "properties": {
        "grid_cell": "(42.375, -75.125)",
        "lat": 42.375,
        "lon": -75.125,
        "cf_DJF": 1.1080916794812161,
        "pct_change_DJF": 10.809167948121612,
        "cf_JJA": 0.9306696562291829,
        "pct_change_JJA": -6.933034377081714,
        "cf_MAM": 1.1718671328520471,
        "pct_change_MAM": 17.186713285204714,
        "cf_SON": 1.0811942080340662,
        "pct_change_SON": 8.11942080340662
      }
    },
    {
      "type": "Feature",
      "geometry": {
        "type": "Point",
        "coordinates": [
          -74.875,
          42.375
        ]
      },
      "properties": {
        "grid_cell": "(42.375, -74.875)",
        "lat": 42.375,
        "lon": -74.875,
        "cf_DJF": 1.096873587552089,
        "pct_change_DJF": 9.687358755208898,
        "cf_JJA": 0.9345336617174426,
        "pct_change_JJA": -6.546633828255743,
        "cf_MAM": 1.1661206651745988,
        "pct_change_MAM": 16.61206651745988,
        "cf_SON": 1.0712407018102195,
        "pct_change_SON": 7.1240701810219464
      }
    },
    {
      "type": "Feature",
      "geometry": {
        "type": "Point",
        "coordinates": [
          -74.625,
          42.375
        ]
      },
      "properties": {
        "grid_cell": "(42.375, -74.625)",
        "lat": 42.375,
        "lon": -74.625,
        "cf_DJF": 1.2162765418122763,
        "pct_change_DJF": 21.62765418122763,
        "cf_JJA": 1.0238736941390891,
        "pct_change_JJA": 2.387369413908913,
        "cf_MAM": 1.231543286723774,
        "pct_change_MAM": 23.15432867237739,
        "cf_SON": 1.1812190260689202,
        "pct_change_SON": 18.121902606892014
      }
    }
  ],
  "metadata": {
    "model": "ACCESS-ESM1-5",
    "variable": "precipitation",
    "scenario": "ssp370",
    "historical_period": "2015-2019",
    "future_period": "2035-2064",
    "description": "Precipitation change factors (future/historical) by season"
  }
}