{
  "type": "FeatureCollection",
  "features": [
    {
      "type": "Feature",
      "geometry": {
        "type": "Point",
        "coordinates": [
          -75.125,
          42.125
        ]
      },
      "properties": {
        "grid_cell": "(42.125, -75.125)",
        "lat": 42.125,
        "lon": -75.125,
        "cf_DJF": 1.1380266093583786,
        "pct_change_DJF": 13.802660935837864,
        "cf_JJA": 0.9517347038347571,
        "pct_change_JJA": -4.826529616524288,
        "cf_MAM": 1.0008305445806147,
        "pct_change_MAM": 0.08305445806147116,
        "cf_SON": 0.8142511024276077,
        "pct_change_SON": -18.574889757239234
      }
    },
    {
      "type": "Feature",
      "geometry": {
        "type": "Point",
        "coordinates": [
          -74.875,
          42.125
        ]
      },
      "properties": {
        "grid_cell": "(42.125, -74.875)",
        "lat": 42.125,
        "lon": -74.875,
        "cf_DJF": 1.2773277472303786,
        "pct_change_DJF": 27.732774723037856,
        "cf_JJA": 0.9659831020970526,
        "pct_change_JJA": -3.4016897902947374,
        "cf_MAM": 1.079334592585326,
        "pct_change_MAM": 7.933459258532594,
        "cf_SON": 0.8771596285476538,
        "pct_change_SON": -12.284037145234617
      }
    },
    {
      "type": "Feature",
      "geometry": {
        "type": "Point",
        "coordinates": [
          -74.625,
          42.125
        ]
      },
      "properties": {
        "grid_cell": "(42.125, -74.625)",
        "lat": 42.125,
        "lon": -74.625,
        "cf_DJF": 1.3666602579471667,
        "pct_change_DJF": 36.666025794716674,
        "cf_JJA": 1.0018592136313391,
        "pct_change_JJA": 0.18592136313391183,
        "cf_MAM": 1.1381372018696359,
        "pct_change_MAM": 13.813720186963586,
        "cf_SON": 0.8892834566435647,
        "pct_change_SON": -11.071654335643533
      }
    },
    {
      "type": "Feature",
      "geometry": {
        "type": "Point",
        "coordinates": [
          -75.125,
          42.375
        ]
      },
      "properties": {
        "grid_cell": "(42.375, -75.125)",
        "lat": 42.375,
        "lon": -75.125,
        "cf_DJF": 1.2776424715015655,
        "pct_change_DJF": 27.76424715015655,
        "cf_JJA": 1.0087536888831894,
        "pct_change_JJA": 0.8753688883189392,
        "cf_MAM": 1.077663266142996,
        "pct_change_MAM": 7.76632661429959,
        "cf_SON": 0.9170167857224675,
        "pct_change_SON": -8.298321427753253
      }
    },
    {
      "type": "Feature",
      "geometry": {
        "type": "Point",
        "coordinates": [
          -74.875,
          42.375
        ]
      },
      "properties": {
        "grid_cell": "(42.375, -74.875)",
        "lat": 42.375,
        "lon": -74.875,
        "cf_DJF": 1.2628453591301707,
        "pct_change_DJF": 26.28453591301707,
        "cf_JJA": 1.0060939326211378,
        "pct_change_JJA": 0.6093932621137776,
        "cf_MAM": 1.0721493419228687,
        "pct_change_MAM": 7.21493419228687,
        "cf_SON": 0.8984378784822952,
        "pct_change_SON": -10.156212151770482
      }
    },
    {
      "type": "Feature",
      "geometry": {
        "type": "Point",
        "coordinates": [
          -74.625,
          42.375
        ]
      },
      "properties": {
        "grid_cell": "(42.375, -74.625)",
        "lat": 42.375,
        "lon": -74.625,
        "cf_DJF": 1.3901570862874213,
        "pct_change_DJF": 39.01570862874213,
        "cf_JJA": 1.0957572281501262,
        "pct_change_JJA": 9.575722815012622,
        "cf_MAM": 1.1349854314153487,
        "pct_change_MAM": 13.498543141534869,
        "cf_SON": 0.9837852797663919,
        "pct_change_SON": -1.6214720233608149
      }
    }
  ],
  "metadata": {
    "model": "CMCC-ESM2",
    "variable": "precipitation",
    "scenario": "ssp370",
    "historical_period": "2015-2019",
    "future_period": "2035-2064",
    "description": "Precipitation change factors (future/historical) by season"
  }
}